OBJECT_NAME,OBJECT_ID,EPOCH,MEAN_MOTION,ECCENTRICITY,INCLINATION,RA_OF_ASC_NODE,ARG_OF_PERICENTER,MEAN_ANOMALY,EPHEMERIS_TYPE,CLASSIFICATION_TYPE,NORAD_CAT_ID,ELEMENT_SET_NO,REV_AT_EPOCH,BSTAR,MEAN_MOTION_DOT,MEAN_MOTION_DDOT
STARLINK-36102,2025-281B,2026-07-08T12:38:19.816800,15.27596135,.00012182,43.0041,21.2584,289.2861,70.7859,0,U,66849,999,3466,.73732817E-3,.20093E-3,0
STARLINK-36105,2025-281C,2026-07-08T06:16:08.963040,15.27608279,.0002259,43.0048,22.7027,257.4159,102.6440,0,U,66850,999,3462,.6368975E-3,.1732E-3,0
STARLINK-36094,2025-281D,2026-07-08T12:06:52.221312,15.27627646,.0001078,43.0019,21.0864,119.2991,240.7968,0,U,66851,999,3466,.6149237E-3,.16722E-3,0
STARLINK-35992,2025-281E,2026-07-08T13:35:28.516128,15.27582031,.00009079,43.0022,20.6876,283.7189,76.3561,0,U,66852,999,3467,.62761909E-3,.1705E-3,0
STARLINK-35986,2025-281F,2026-07-08T05:39:08.558208,15.27600231,.00010695,42.9991,22.5031,286.8224,73.2511,0,U,66853,999,3462,.23132573E-3,.6113E-4,0
STARLINK-36087,2025-281G,2026-07-08T13:24:22.314240,15.27589387,.00007748,43.0005,20.6327,271.2266,88.8497,0,U,66854,999,3467,.58105772E-3,.15766E-3,0
STARLINK-36090,2025-281H,2026-07-08T13:09:34.029792,15.27601507,.00008043,42.9963,20.5492,282.5949,77.4813,0,U,66855,999,3467,.58112056E-3,.15774E-3,0
STARLINK-36072,2025-281J,2026-07-08T12:58:40.909728,15.27618797,.00006027,43.0000,21.3609,233.1225,126.9571,0,U,66856,999,3466,.62906584E-3,.17109E-3,0
STARLINK-36083,2025-281K,2026-07-06T23:07:50.448576,15.27621451,.00018571,43.0025,30.1640,259.1423,100.9220,0,U,66857,999,3442,.15071546E-2,.41498E-3,0
STARLINK-35118,2025-281L,2026-07-08T12:27:13.305600,15.27609757,.00002691,43.0016,21.1949,317.1969,42.8862,0,U,66858,999,3466,.78417767E-3,.21399E-3,0
STARLINK-35646,2025-281M,2026-07-08T12:21:40.576608,15.27615062,.00010762,43.0040,21.1644,42.9780,317.1156,0,U,66859,999,3466,.72083471E-3,.19648E-3,0
STARLINK-35987,2025-281N,2026-07-08T13:31:46.538976,15.27590222,.00006905,43.0015,20.6676,281.5768,78.5006,0,U,66860,999,3467,.81299562E-3,.22184E-3,0
STARLINK-35991,2025-281P,2026-07-08T05:28:02.708832,15.27590337,.00004575,42.9993,22.4480,359.7563,0.3288,0,U,66861,999,3462,.3813633E-3,.1025E-3,0
STARLINK-35974,2025-281Q,2026-07-08T05:59:29.518944,15.27607394,.00017401,43.0087,22.6134,289.8827,70.1837,0,U,66862,999,3462,.39833436E-3,.10724E-3,0
STARLINK-36134,2025-281R,2026-07-08T13:04:00.817824,15.27609539,.00026438,43.0007,20.5154,268.0009,92.0540,0,U,66863,999,3467,.64853209E-3,.17644E-3,0
STARLINK-36070,2025-281S,2026-07-08T06:27:15.553728,15.27603632,.00009013,43.0038,22.7587,251.4028,108.6726,0,U,66864,999,3462,.51768628E-3,.14021E-3,0
STARLINK-36117,2025-281T,2026-07-08T05:24:20.896704,15.27602305,.00003477,43.0002,22.4250,91.0494,269.0398,0,U,66865,999,3462,.40686653E-3,.10958E-3,0
STARLINK-36126,2025-281U,2026-07-08T13:00:31.651200,15.27596766,.00012601,42.9999,21.3688,280.1275,79.9435,0,U,66866,999,3465,.6303292E-3,.17132E-3,0
STARLINK-36101,2025-281V,2026-07-08T12:54:58.975776,15.27642759,.00014105,43.0019,21.3389,267.3103,92.7587,0,U,66867,999,3465,.89253847E-3,.24427E-3,0
STARLINK-36108,2025-281W,2026-07-08T06:32:48.289632,15.27601638,.00010593,43.0027,22.7873,272.3350,87.7380,0,U,66868,999,3461,.40700486E-3,.10962E-3,0
STARLINK-36092,2025-281X,2026-07-08T12:40:10.656768,15.27605125,.00009812,43.0038,21.2606,237.8564,122.2192,0,U,66869,999,3465,.46787867E-3,.12645E-3,0
STARLINK-36114,2025-281Y,2026-07-08T12:34:37.655616,15.27609124,.00007082,42.9997,21.2306,105.1823,254.9107,0,U,66870,999,3465,.54517977E-3,.14783E-3,0
STARLINK-36095,2025-281Z,2026-07-08T06:12:27.167328,15.27609433,.0001339,43.0050,22.6783,261.1699,98.9001,0,U,66871,999,3460,.68867109E-3,.18754E-3,0
STARLINK-36082,2025-281AA,2026-07-08T12:23:30.401376,15.27612275,.00011084,43.0022,21.1715,279.9512,80.1214,0,U,66872,999,3465,.64063053E-3,.17426E-3,0
STARLINK-36128,2025-281AB,2026-07-08T13:42:52.581024,15.27585750,.00008602,42.9997,20.7198,247.9367,112.1393,0,U,66873,999,3461,.48057651E-3,.12988E-3,0
STARLINK-36129,2025-281AC,2026-07-08T12:17:58.449984,15.27615779,.00004641,43.0033,21.1415,29.3402,330.7476,0,U,66874,999,3465,.67651329E-3,.18421E-3,0
STARLINK-36053,2025-281AD,2026-07-08T13:37:19.333632,15.27602065,.00014084,43.0021,20.6891,268.7769,91.2921,0,U,66875,999,3461,.66822096E-3,.18184E-3,0
STARLINK-35702,2025-281AE,2026-07-08T13:46:33.612096,15.27587287,.00031227,43.0110,20.7368,240.6768,119.3772,0,U,66876,999,3466,.22679142E-2,.62696E-3,0
STARLINK-35866,2025-283A,2026-07-08T05:57:01.171872,15.30236867,.00027828,53.1592,184.0832,83.4203,276.7114,0,U,66878,999,3430,.50775091E-3,.14726E-3,0
STARLINK-35749,2025-283B,2026-07-08T08:48:25.925472,15.30202144,.00009964,53.1587,183.4030,85.1973,274.9142,0,U,66879,999,3432,.34539177E-3,.9885E-4,0
STARLINK-35844,2025-283C,2026-07-06T17:44:41.540352,15.30166833,.00014875,53.1590,191.0218,92.1651,267.9521,0,U,66880,999,3407,.47551295E-3,.13736E-3,0
STARLINK-35860,2025-283D,2026-07-08T08:39:19.023840,15.30203789,.00011106,53.1580,183.3615,89.2640,270.8488,0,U,66881,999,3432,.39997252E-3,.11507E-3,0
STARLINK-35912,2025-283E,2026-07-08T08:41:40.860672,15.34390527,.00040002,53.1579,181.9624,64.3431,295.7984,0,U,66882,999,3434,.36933167E-3,.1212E-3,0
STARLINK-35947,2025-283F,2026-07-08T08:53:48.378048,15.34400583,.00010234,53.1591,182.0160,87.8896,272.2224,0,U,66883,999,3436,.32432319E-3,.10597E-3,0
STARLINK-36057,2025-283G,2026-07-08T06:31:39.847872,15.34400616,.00011693,53.1565,182.8166,117.0881,243.0241,0,U,66884,999,3432,.38164869E-3,.1254E-3,0
STARLINK-35954,2025-283H,2026-07-08T09:21:04.332672,15.34404570,.00012918,53.1579,182.1294,103.4279,256.6868,0,U,66885,999,3434,.38282006E-3,.12582E-3,0
STARLINK-35900,2025-283J,2026-07-08T09:08:57.353568,15.34415658,.00011433,53.1594,182.0758,83.7683,276.3450,0,U,66886,999,3434,.61939819E-3,.20619E-3,0
STARLINK-35925,2025-283K,2026-07-08T06:28:37.924032,15.34400786,.00006125,53.1562,182.8019,110.7983,249.3085,0,U,66887,999,3432,.43040425E-3,.14194E-3,0
STARLINK-35919,2025-283L,2026-07-08T09:54:22.540032,15.34483587,.00011552,53.1577,182.2721,109.2384,250.8744,0,U,66888,999,3434,.14896047E-2,.50426E-3,0
STARLINK-35852,2025-283M,2026-07-08T05:58:20.167392,15.34402590,.00014069,53.1592,182.6710,68.2645,291.8507,0,U,66889,999,3432,.39135844E-3,.1287E-3,0
STARLINK-35885,2025-283N,2026-07-08T09:24:06.021504,15.34409712,.00012197,53.1576,182.1398,64.3897,295.7231,0,U,66890,999,3434,.44679836E-3,.14754E-3,0
STARLINK-35855,2025-283P,2026-07-08T06:43:47.029152,15.34402558,.00014384,53.1574,182.8654,104.7730,255.3432,0,U,66891,999,3432,.56286364E-3,.1869E-3,0
STARLINK-35883,2025-283Q,2026-07-08T09:08:11.120928,15.30205024,.0001315,53.1594,183.4877,64.6893,295.4244,0,U,66892,999,3432,.35010402E-3,.10025E-3,0
STARLINK-36033,2025-283R,2026-07-08T08:34:55.274016,15.30202147,.00012733,53.1570,184.0534,94.3416,265.7730,0,U,66893,999,3431,.43858427E-3,.12653E-3,0
STARLINK-35718,2025-283S,2026-07-08T08:59:02.727168,15.30188973,.00010524,53.1591,183.4484,91.0459,269.0662,0,U,66894,999,3432,.52958532E-3,.15353E-3,0
STARLINK-35971,2025-283T,2026-07-08T05:55:18.364512,15.34400162,.00013139,53.1581,182.6583,73.1139,287.0008,0,U,66895,999,3432,.3364437E-3,.11008E-3,0
STARLINK-35791,2025-283U,2026-07-08T08:43:52.918752,15.30199671,.00016124,53.1580,183.3803,85.9573,274.1612,0,U,66896,999,3432,.50011627E-3,.14482E-3,0
STARLINK-36079,2025-283V,2026-07-08T06:40:45.025824,15.34402961,.00011228,53.1566,182.8530,63.6954,296.4164,0,U,66897,999,3431,.35659234E-3,.11692E-3,0
STARLINK-36065,2025-283W,2026-07-07T09:11:43.479168,15.34377808,.00013353,53.1586,186.5119,89.6085,270.5071,0,U,66898,999,3419,.42827099E-3,.14111E-3,0
STARLINK-36064,2025-283X,2026-07-07T09:20:47.228064,15.34422169,.00014155,53.1589,186.5502,58.5387,301.5754,0,U,66899,999,3419,.55934027E-3,.18582E-3,0
STARLINK-36074,2025-283Y,2026-07-08T06:10:27.381504,15.34400971,.00019574,53.1582,182.7223,101.3258,258.7965,0,U,66900,999,3432,.40567021E-3,.13355E-3,0
STARLINK-36043,2025-283Z,2026-07-08T08:44:40.607232,15.34464844,.00006553,53.1588,181.9684,70.6405,289.4669,0,U,66901,999,3434,.10010493E-2,.33668E-3,0
STARLINK-35983,2025-283AA,2026-07-08T06:07:25.121568,15.34403203,.00012101,53.1583,182.7062,66.6580,293.4549,0,U,66902,999,3432,.430152E-3,.14186E-3,0
STARLINK-36077,2025-283AB,2026-07-08T00:10:25.377024,15.34394399,.00013563,53.1581,184.0029,119.1287,240.9852,0,U,66903,999,3428,.40328002E-3,.13271E-3,0
STARLINK-36059,2025-283AC,2026-07-08T08:35:45.128544,15.34406052,.00013772,53.1578,182.6388,90.8372,269.2789,0,U,66904,999,3433,.42265087E-3,.13933E-3,0
STARLINK-36075,2025-283AD,2026-07-08T10:07:25.443264,15.30204519,.00010199,53.1569,183.7414,109.0902,251.0210,0,U,66905,999,3432,.51802263E-3,.15016E-3,0
STARLINK-35945,2025-286A,2026-07-08T07:18:16.722144,15.34416054,.00022349,53.1583,156.7731,63.2318,296.8913,0,U,66925,999,3390,.65849395E-3,.21949E-3,0
STARLINK-35942,2025-286B,2026-07-08T06:57:02.652192,15.34400768,.00013292,53.1582,156.6882,87.0844,273.0311,0,U,66926,999,3390,.51809208E-3,.17169E-3,0
STARLINK-35943,2025-286C,2026-07-08T07:45:24.975072,15.34405703,.00010862,53.1569,156.1842,116.1675,243.9439,0,U,66927,999,3391,.39265192E-3,.12915E-3,0
STARLINK-35944,2025-286D,2026-07-07T08:06:29.545344,15.34388162,.00013542,53.1578,161.4102,70.5565,289.5584,0,U,66928,999,3375,.51292614E-3,.16987E-3,0
STARLINK-36169,2025-286E,2026-07-08T07:51:28.452960,15.34410018,.00013588,53.1563,156.2113,90.6721,269.4437,0,U,66929,999,3391,.46964794E-3,.15529E-3,0
STARLINK-36206,2025-286F,2026-07-08T08:55:05.793312,15.34408526,.00011227,53.1577,156.4821,106.3507,253.7619,0,U,66930,999,3390,.34673655E-3,.1136E-3,0
STARLINK-36130,2025-286G,2026-07-07T07:11:57.504768,15.34386657,.00013549,53.1582,161.1777,94.2914,265.8243,0,U,66931,999,3375,.57505436E-3,.19094E-3,0
STARLINK-36177,2025-286H,2026-07-08T08:18:44.661600,15.34408273,.00013757,53.1571,156.3300,87.8965,272.2195,0,U,66932,999,3391,.41035641E-3,.13517E-3,0
